[{"OBJECT_NAME":"TIANMU-1 09","OBJECT_ID":"2023-101C","EPOCH":"2026-03-09T22:17:34.703232","MEAN_MOTION":15.29080822,"ECCENTRICITY":0.00049013,"INCLINATION":97.267,"RA_OF_ASC_NODE":121.1263,"ARG_OF_PERICENTER":139.4293,"MEAN_ANOMALY":220.7314,"EPHEMERIS_TYPE":0,"CLASSIFICATION_TYPE":"U","NORAD_CAT_ID":57401,"ELEMENT_SET_NO":999,"REV_AT_EPOCH":14647,"BSTAR":0.00030540035,"MEAN_MOTION_DOT":8.553e-5,"MEAN_MOTION_DDOT":0},{"OBJECT_NAME":"STARLINK-35888","OBJECT_ID":"2025-303AD","EPOCH":"2026-03-09T01:01:27.560640","MEAN_MOTION":15.27564498,"ECCENTRICITY":7.004e-5,"INCLINATION":42.994,"RA_OF_ASC_NODE":314.5842,"ARG_OF_PERICENTER":284.7454,"MEAN_ANOMALY":75.332,"EPHEMERIS_TYPE":0,"CLASSIFICATION_TYPE":"U","NORAD_CAT_ID":67190,"ELEMENT_SET_NO":999,"REV_AT_EPOCH":1263,"BSTAR":0.0012225527,"MEAN_MOTION_DOT":0.00033517,"MEAN_MOTION_DDOT":0}]
